NORAD_CAT_ID,OBJECT_NAME,OBJECT_TYPE,EPOCH,MEAN_MOTION,ECCENTRICITY,INCLINATION,RA_OF_ASC_NODE,ARG_OF_PERICENTER,MEAN_ANOMALY,BSTAR,MEAN_MOTION_DOT,MEAN_MOTION_DDOT,TLE_LINE0,TLE_LINE1,TLE_LINE2,SEMIMAJOR_AXIS,PERIOD,APOGEE,PERIGEE,DECAYED
56456.0,STARLINK-5995,PAYLOAD,2024-08-09 20:59:42,14.98325678,0.0002922,70.0027,158.8613,253.1007,106.9832,-6.8735e-05,-9.13e-06,0.0,0 STARLINK-5995,1 56456U 23064J   24222.87479360 -.00000913  00000-0 -68735-4 0  9995,2 56456  70.0027 158.8613 0002922 253.1007 106.9832 14.98325678 68847,6950.206,96.107,574.102,570.04,0.0
56456.0,STARLINK-5995,PAYLOAD,2024-08-10 05:00:21,14.9833707,0.0002668,70.0015,158.0157,260.4753,99.6105,2.1884e-05,1.68e-06,0.0,0 STARLINK-5995,1 56456U 23064J   24223.20858431  .00000168  00000-0  21884-4 0  9997,2 56456  70.0015 158.0157 0002668 260.4753  99.6105 14.98337070 69251,6950.171,96.107,573.89,570.182,0.0
56456.0,STARLINK-5995,PAYLOAD,2024-08-10 22:37:49,14.9834077,0.0002714,70.0015,156.1665,248.9836,111.1033,8.9979e-05,9.81e-06,0.0,0 STARLINK-5995,1 56456U 23064J   24223.94293692  .00000981  00000-0  89979-4 0  9992,2 56456  70.0015 156.1665 0002714 248.9836 111.1033 14.98340770 69003,6950.16,96.106,573.911,570.138,0.0
56456.0,STARLINK-5995,PAYLOAD,2024-08-11 13:03:02,14.98334569,0.0002728,70.0011,154.6501,268.3737,91.711,-9.5699e-05,-1.235e-05,0.0,0 STARLINK-5995,1 56456U 23064J   24224.54378273 -.00001235  00000-0 -95699-4 0  9999,2 56456  70.0011 154.6501 0002728 268.3737  91.7110 14.98334569 69459,6950.179,96.107,573.94,570.148,0.0
56456.0,STARLINK-5995,PAYLOAD,2024-08-11 22:39:51,14.98326236,0.000267,70.0017,153.6399,267.3682,92.7171,2.7739e-05,2.38e-06,0.0,0 STARLINK-5995,1 56456U 23064J   24224.94434766  .00000238  00000-0  27739-4 0  9993,2 56456  70.0017 153.6399 0002670 267.3682  92.7171 14.98326236 69150,6950.205,96.107,573.925,570.214,0.0
56456.0,STARLINK-5995,PAYLOAD,2024-08-12 13:05:02,14.98342718,0.0002972,70.0013,152.1233,261.6051,98.4771,9.6514e-05,1.059e-05,0.0,0 STARLINK-5995,1 56456U 23064J   24225.54517197  .00001059  00000-0  96514-4 0  9999,2 56456  70.0013 152.1233 0002972 261.6051  98.4771 14.98342718 69601,6950.154,96.106,574.084,569.953,0.0
56456.0,STARLINK-5995,PAYLOAD,2024-08-12 14:41:10,14.98342448,0.0002896,70.0012,151.9552,258.2829,101.8005,8.6879e-05,9.44e-06,0.0,0 STARLINK-5995,1 56456U 23064J   24225.61193186  .00000944  00000-0  86879-4 0  9990,2 56456  70.0012 151.9552 0002896 258.2829 101.8005 14.98342448 69251,6950.154,96.106,574.032,570.007,0.0
56456.0,STARLINK-5995,PAYLOAD,2024-08-12 17:53:27,14.98338597,0.0003323,70.0005,151.6219,270.3399,89.738,-2.5867e-05,-4.02e-06,0.0,0 STARLINK-5995,1 56456U 23064J   24225.74545654 -.00000402  00000-0 -25867-4 0  9996,2 56456  70.0005 151.6219 0003323 270.3399  89.7380 14.98338597 69635,6950.166,96.106,574.341,569.722,0.0
56456.0,STARLINK-5995,PAYLOAD,2024-08-12 22:41:51,14.9834006,0.0003178,70.0008,151.1169,267.5734,92.5061,-7.48e-06,-1.82e-06,0.0,0 STARLINK-5995,1 56456U 23064J   24225.94573426 -.00000182  00000-0 -74800-5 0  9993,2 56456  70.0008 151.1169 0003178 267.5734  92.5061 14.98340060 69306,6950.162,96.106,574.236,569.818,0.0
56456.0,STARLINK-5995,PAYLOAD,2024-08-13 05:06:23,14.98345905,0.0002726,70.0013,150.4423,269.8244,90.2603,2.7187e-05,2.32e-06,0.0,0 STARLINK-5995,1 56456U 23064J   24226.21276658  .00000232  00000-0  27187-4 0  9990,2 56456  70.0013 150.4423 0002726 269.8244  90.2603 14.98345905 69700,6950.144,96.106,573.903,570.114,0.0
56456.0,STARLINK-5995,PAYLOAD,2024-08-13 17:55:30,14.98304563,0.000279,70.0013,149.0949,261.4692,98.6151,-9.8636e-05,-1.269e-05,0.0,0 STARLINK-5995,1 56456U 23064J   24226.74687950 -.00001269  00000-0 -98636-4 0  9999,2 56456  70.0013 149.0949 0002790 261.4692  98.6151 14.98304563 69786,6950.272,96.109,574.076,570.197,0.0
56456.0,STARLINK-5995,PAYLOAD,2024-08-13 22:43:54,14.98302612,0.0002942,70.0007,148.5885,253.7553,106.3282,-0.00013774,-1.735e-05,0.0,0 STARLINK-5995,1 56456U 23064J   24226.94716399 -.00001735  00000-0 -13774-3 0  9998,2 56456  70.0007 148.5885 0002942 253.7553 106.3282 14.98302612 69450,6950.278,96.109,574.187,570.098,0.0
56456.0,STARLINK-5995,PAYLOAD,2024-08-14 11:32:59,14.98322559,0.000327,69.9996,147.2456,264.4355,95.6431,-0.00021322,-2.636e-05,0.0,0 STARLINK-5995,1 56456U 23064J   24227.48123882 -.00002636  00000-0 -21322-3 0  9996,2 56456  69.9996 147.2456 0003270 264.4355  95.6431 14.98322559 69894,6950.216,96.107,574.354,569.808,0.0
56456.0,STARLINK-5995,PAYLOAD,2024-08-14 22:45:55,14.98315528,0.0003132,69.9995,146.0654,275.4643,84.6159,6.5037e-05,6.83e-06,0.0,0 STARLINK-5995,1 56456U 23064J   24227.94856304  .00000683  00000-0  65037-4 0  9999,2 56456  69.9995 146.0654 0003132 275.4643  84.6159 14.98315528 69601,6950.238,96.108,574.279,569.926,0.0
56456.0,STARLINK-5995,PAYLOAD,2024-08-15 03:34:19,14.98333598,0.0002753,70.0004,145.5618,270.0541,90.0303,0.00013047,1.464e-05,0.0,0 STARLINK-5995,1 56456U 23064J   24228.14883237  .00001464  00000-0  13047-3 0  9998,2 56456  70.0004 145.5618 0002753 270.0541  90.0303 14.98333598 69996,6950.182,96.107,573.96,570.133,0.0
56456.0,STARLINK-5995,PAYLOAD,2024-08-15 11:34:59,14.98336928,0.0002831,70.0014,144.7205,274.2131,85.8704,0.0003725,4.355e-05,0.0,0 STARLINK-5995,1 56456U 23064J   24228.48263509  .00004355  00000-0  37250-3 0  9993,2 56456  70.0014 144.7205 0002831 274.2131  85.8704 14.98336928 69681,6950.171,96.107,574.004,570.069,0.0
56456.0,STARLINK-5995,PAYLOAD,2024-08-15 22:47:56,14.98342774,0.000287,70.0016,143.5419,277.8072,82.2761,0.00082583,9.778e-05,0.0,0 STARLINK-5995,1 56456U 23064J   24228.94995744  .00009778  00000-0  82583-3 0  9990,2 56456  70.0016 143.5419 0002870 277.8072  82.2761 14.98342774 69751,6950.153,96.106,574.013,570.024,0.0
56456.0,STARLINK-5995,PAYLOAD,2024-08-16 03:36:19,14.98370178,0.000281,70.0021,143.037,277.8619,82.2221,0.0014446,0.00017204,0.0,0 STARLINK-5995,1 56456U 23064J   24229.15022963  .00017204  00000-0  14446-2 0  9993,2 56456  70.0021 143.0370 0002810 277.8619  82.2221 14.98370178 70144,6950.069,96.104,573.887,569.981,0.0
56456.0,STARLINK-5995,PAYLOAD,2024-08-16 21:13:47,14.98359742,0.0002725,70.0026,141.186,279.024,81.0611,0.00080983,9.59e-05,0.0,0 STARLINK-5995,1 56456U 23064J   24229.88458315  .00009590  00000-0  80983-3 0  9996,2 56456  70.0026 141.1860 0002725 279.0240  81.0611 14.98359742 70257,6950.101,96.105,573.86,570.072,0.0
56456.0,STARLINK-5995,PAYLOAD,2024-08-17 03:38:20,14.98351104,0.0002832,70.0023,140.5122,274.8246,85.259,0.00040806,4.782e-05,0.0,0 STARLINK-5995,1 56456U 23064J   24230.15162098  .00004782  00000-0  40806-3 0  9996,2 56456  70.0023 140.5122 0002832 274.8246  85.2590 14.98351104 70296,6950.128,96.106,573.961,570.024,0.0
56456.0,STARLINK-5995,PAYLOAD,2024-08-17 18:03:33,14.98335973,0.0002253,70.0043,138.996,305.4095,54.6854,0.00030978,3.606e-05,0.0,0 STARLINK-5995,1 56456U 23064J   24230.75246694  .00003606  00000-0  30978-3 0  9990,2 56456  70.0043 138.9960 0002253 305.4095  54.6854 14.98335973 70388,6950.174,96.107,573.605,570.474,0.0
56456.0,STARLINK-5995,PAYLOAD,2024-08-18 03:40:21,14.98327871,0.0002378,70.0034,137.9869,275.7969,84.2919,-0.00014203,-1.787e-05,0.0,0 STARLINK-5995,1 56456U 23064J   24231.15302764 -.00001787  00000-0 -14203-3 0  9999,2 56456  70.0034 137.9869 0002378 275.7969  84.2919 14.98327871 70448,6950.199,96.107,573.717,570.412,0.0
56456.0,STARLINK-5995,PAYLOAD,2024-08-18 21:17:49,14.98341396,0.0002702,70.0018,136.1372,254.9863,105.0997,0.00033943,3.96e-05,0.0,0 STARLINK-5995,1 56456U 23064J   24231.88737863  .00003960  00000-0  33943-3 0  9996,2 56456  70.0018 136.1372 0002702 254.9863 105.0997 14.98341396 70551,6950.158,96.106,573.901,570.145,0.0
56456.0,STARLINK-5995,PAYLOAD,2024-08-19 03:42:21,14.98353334,0.0002926,70.0021,135.4627,272.4407,87.6417,0.00073297,8.669e-05,0.0,0 STARLINK-5995,1 56456U 23064J   24232.15441600  .00008669  00000-0  73297-3 0  9995,2 56456  70.0021 135.4627 0002926 272.4407  87.6417 14.98353334 70239,6950.121,96.106,574.019,569.952,0.0
56456.0,STARLINK-5995,PAYLOAD,2024-08-19 21:19:50,14.98329994,0.0003046,70.0023,133.6112,268.9682,91.1128,-6.5718e-05,-8.77e-06,0.0,0 STARLINK-5995,1 56456U 23064J   24232.88878256 -.00000877  00000-0 -65718-4 0  9991,2 56456  70.0023 133.6112 0003046 268.9682  91.1128 14.98329994 70705,6950.193,96.107,574.175,569.941,0.0
56456.0,STARLINK-5995,PAYLOAD,2024-08-20 03:44:23,14.98332042,0.0003047,70.0022,132.9381,268.2116,91.8694,0.00042744,5.011e-05,0.0,0 STARLINK-5995,1 56456U 23064J   24233.15582282  .00005011  00000-0  42744-3 0  9999,2 56456  70.0022 132.9381 0003047 268.2116  91.8694 14.98332042 70387,6950.187,96.107,574.169,569.934,0.0
56456.0,STARLINK-5995,PAYLOAD,2024-08-21 03:46:23,14.98348261,0.0002874,70.0018,130.4132,269.0592,91.0238,0.00095325,0.00011305,0.0,0 STARLINK-5995,1 56456U 23064J   24234.15722026  .00011305  00000-0  95325-3 0  9998,2 56456  70.0018 130.4132 0002874 269.0592  91.0238 14.98348261 70895,6950.136,96.106,573.999,570.004,0.0
56456.0,STARLINK-5995,PAYLOAD,2024-08-21 19:47:44,14.9833559,0.00029,70.0017,128.7305,261.5285,98.5545,0.00031334,3.648e-05,0.0,0 STARLINK-5995,1 56456U 23064J   24234.82482294  .00003648  00000-0  31334-3 0  9993,2 56456  70.0017 128.7305 0002900 261.5285  98.5545 14.98335590 70638,6950.176,96.107,574.056,570.025,0.0
56456.0,STARLINK-5995,PAYLOAD,2024-08-21 23:00:00,14.98332585,0.0002852,70.002,128.3939,258.1925,101.8914,0.00018208,2.08e-05,0.0,0 STARLINK-5995,1 56456U 23064J   24234.95834297  .00002080  00000-0  18208-3 0  9995,2 56456  70.0020 128.3939 0002852 258.1925 101.8914 14.98332585 71012,6950.185,96.107,574.032,570.068,0.0
